RS57S MONITOR-4
1 57182U 23091S   26051.84093883  .00012197  00000+0  48500-3 0  9994
2 57182  97.5229 114.5267 0013320 145.8967 214.3129 15.25356454146546
RS-38S
1 57189U 23091Z   26051.91600323  .00014587  00000+0  47286-3 0  9997
2 57189  97.5231 119.3355 0009059 123.2924 236.9186 15.32059751146860
RS49S NANOZOND-1
1 57190U 23091AA  26051.93120815  .00133935  00000+0  11850-2 0  9990
2 57190  97.5115 130.9165 0002048 126.6758 233.4691 15.68210818147646
RS27S UTMN-2
1 57203U 23091AP  26051.95138866  .00011747  00000+0  41994-3 0  9991
2 57203  97.5231 117.7461 0009810 127.4998 232.7135 15.28930053146764
METEOR-M2-4
1 59051U 24039A   26051.97791064  .00000028  00000+0  32086-4 0  9997
2 59051  98.6874  12.8244 0007671 139.0204 221.1552 14.22414225102744
SONATE-2
1 59112U 24043Q   26051.88075940  .00031465  00000+0  56229-3 0  9991
2 59112  97.5383 196.0224 0007917 269.2416  90.7928 15.49940712109820
MO-122
1 60209U 24125G   26051.55777837  .00037214  00000+0  61773-3 0  9997
2 60209  97.2466 267.2401 0011511 292.6233  67.3802 15.51948601 91412
GRBBeta
1 60237U 24128C   26051.83878045  .00003887  00000+0  27504-3 0  9998
2 60237  61.9886 264.1734 0052960 110.8222 249.8554 15.05564297 88741
Curium One
1 60242U 24128H   26051.87375731  .00007766  00000+0  46788-3 0  9997
2 60242  61.9775 257.1301 0052940 107.8244 252.8636 15.10405434 88876
ROBUSTA-3A
1 60243U 24128J   26051.84308842  .00006898  00000+0  42516-3 0  9994
2 60243  61.9850 259.0965 0053307 105.2675 255.4321 15.09707071 88843
CatSat
1 60246U 24125J   26051.55538740  .00039632  00000+0  77346-3 0  9995
2 60246  97.2227 263.4739 0027892 252.8311 106.9885 15.46959453 89299
ARTIC WX
1 60543U 24149CD  26051.89160911  .00000949  00000+0  10453-3 0  9994
2 60543  97.6913 125.6280 0003385 120.4050 239.7502 14.89802560 81987
ARCTICSAT 1
1 61762U 24199AD  26051.93152052  .00078940  00000+0  88895-3 0  9996
2 61762  97.3121 289.6615 0005244 343.2033  16.9051 15.62288797119779
HYPERVIEW-1G (RS66S)
1 61772U 24199AP  26051.91528333  .00051495  00000+0  74820-3 0  9993
2 61772  97.3114 287.5778 0008842 356.3384   3.7804 15.55594344116496
AO-123
1 61781U 24199AY  26051.91534531  .00009227  00000+0  28478-3 0  9994
2 61781  97.3176 281.6582 0014630  12.6270 347.5336 15.33681274116090
SAMSAT-IONOSPHERE
1 61784U 24199BB  26051.93689164  .00033804  00000+0  64310-3 0  9995
2 61784  97.3142 285.7851 0010690   0.4139 359.7119 15.48101449119523
CROCUBE
1 62394U 24247T   26050.75411840  .00032471  00000+0  80340-3 0  9990
2 62394  44.9723 197.2841 0003500 268.6057  91.4429 15.39930177 65194
JINJUSat 1B
1 63210U 25052A   26051.65720722  .00015846  00000+0  55629-3 0  9994
2 63210  97.4142 308.4990 0004988 119.3904 240.7834 15.29482728 52261
NUSHSAT 1
1 63211U 25052B   26051.65869244  .00018853  00000+0  63003-3 0  9994
2 63211  97.4121 308.7424 0004749 120.1428 240.0284 15.31048400 52282
TEVEL2-4
1 63213U 25052D   26051.69543387  .00016671  00000+0  57346-3 0  9996
2 63213  97.4042 308.1737 0003724 128.0758 232.0819 15.30140295 52270
TEVEL2-5
1 63214U 25052E   26051.24730258  .00015366  00000+0  53095-3 0  9990
2 63214  97.4043 307.7032 0003600 129.0028 231.1533 15.30011935 52203
TEVEL2-6
1 63215U 25052F   26051.64906819  .00017336  00000+0  59905-3 0  9998
2 63215  97.4045 308.0900 0003743 130.1796 229.9773 15.29984755 52261
TEVEL2-1
1 63217U 25052H   26051.83902495  .00016731  00000+0  58527-3 0  9994
2 63217  97.4018 308.0276 0003409 139.5101 220.6394 15.29593370 52289
TEVEL2-3
1 63218U 25052J   26051.50988841  .00014962  00000+0  52347-3 0  9996
2 63218  97.4022 307.7102 0003376 142.2411 217.9067 15.29612455 52234
TEVEL2-2
1 63219U 25052K   26051.64344773  .00016645  00000+0  58236-3 0  9995
2 63219  97.4022 307.8335 0003355 142.0384 218.1093 15.29588186 52255
TEVEL2-9
1 63237U 25052AD  26051.94050411  .00015087  00000+0  55531-3 0  9995
2 63237  97.4080 307.7279 0006079 176.7968 183.3311 15.27935857 52258
TEVEL2-7
1 63238U 25052AE  26051.70052352  .00014778  00000+0  54744-3 0  9997
2 63238  97.4084 307.4461 0006202 177.8392 182.2875 15.27726847 52210
TEVEL2-8
1 63239U 25052AF  26051.24879432  .00013716  00000+0  50900-3 0  9994
2 63239  97.4083 306.9790 0006012 180.1321 179.9917 15.27687645 52141
HYDRA-W
1 63490U 25052BL  26051.95921211  .00135537  00000+0  18646-2 0  9990
2 63490  97.3972 312.4375 0007145 140.4896 219.6881 15.56780040 52586
HADES-ICM (SO-125)
1 63492U 25052BN  26051.95959091  .00102226  00000+0  16683-2 0  9997
2 63492  97.3986 311.8582 0006521 149.1896 210.9741 15.52202871 52541
PARUS-T2
1 64574U 25135AY  26051.92416920  .00004475  00000+0  41703-3 0  9996
2 64574  97.7605 167.9614 0001964  36.6719 323.4636 14.94750907 36550
BOTAN
1 65942U 98067XP  26051.47234558  .00501630  11270-3  12723-2 0  9994
2 65942  51.6144 140.8294 0009750 355.6567   4.4354 15.94821373 20853
CEVROSAT1
1 66309U 25248S   26051.33388700  .00004822  00000+0  23902-3 0  9995
2 66309  45.4055  27.6547 0001974 114.4882 245.6210 15.19053279 16738
SPIRONE
1 66657U 25274H   26051.79499358  .00002314  00000+0  22804-3 0  9996
2 66657  97.7430 342.8382 0013508  46.4515 313.7824 14.92948421 12852
K-HERO
1 66660U 25274L   26051.76666088  .00002352  00000+0  22886-3 0  9995
2 66660  97.7443 342.8824 0015609  50.2474 310.0118 14.93417488 12853
SNUGLITE-III DURI
1 66661U 25274M   26051.75956246  .00002591  00000+0  25091-3 0  9999
2 66661  97.7437 342.8884 0016190  51.4201 308.8466 14.93513804 12850
SilverSat
1 66909U 98067XV  26051.83118555  .00125725  00000+0  11788-2 0  9998
2 66909  51.6265 150.8302 0004109 345.8583  14.2297 15.66283326 12545
GALAPAGOS
1 67279U 25313AH  26051.90365650  .00007111  00000+0  32226-3 0  9990
2 67279  97.4027 128.4387 0015654  55.9303 304.3416 15.21045701  8264
Lobachevsky
1 67282U 25313AL  26051.94354122  .00005687  00000+0  25407-3 0  9999
2 67282  97.4028 128.5253 0011978  53.2686 306.9648 15.21670611  8272
SAKHACUBE-CHOLBON
1 67290U 25313AU  26051.92525019  .00009327  00000+0  40527-3 0  9996
2 67290  97.4035 128.5629 0010551  51.4864 308.7317 15.22460472  8276
QMR-KWT
1 67291U 25313AV  26051.91875631  .00012623  00000+0  54049-3 0  9991
2 67291  97.4034 128.5712 0010153  50.7750 309.4386 15.22881585  8279
Delfi-N3xt
1 39428U 13066N   26051.72996249  .00007590  00000-0  68957-3 0  9993
2 39428  97.8353 332.2979 0075169 233.2715 126.1585 14.93380040657232
RSP-03
1 65732U 98067XL  26047.27951905  .10199253  12460-4  79249-3 0  9991
2 65732  51.6061 154.7117 0006246 319.9198  40.1367 16.39378610 23558
IO-86
1 40931U          25360.30710720  .00000000  00000-0  12800-3 0    00
2 40931   6.0006 332.5373 0012733 338.8432   8.1437 14.79075515    01
PARUS-T1
1 98707U 25009N   25063.20000000  .00000000  00000-0  00000-0 0    08
2 98707  97.4430 144.9801 0003811 149.1702 136.3402 15.16239457    06
T.MicroSat-1
1 98515U 25276Y   25347.12519372 +.00009703 +00000+0 +47621-3 0 00218
2 98515  97.4377  58.8963 0002080  99.7173 260.4296 15.18293117002180
CORIOLIS
1 27640U 03001A   26051.85807073  .00000114  00000+0  74336-4 0  9997
2 27640  98.7161  60.5066 0013887 183.7120 176.3956 14.19905419197710
